CCSDS_OMM_VERS = 2.0
CREATION_DATE  = 
ORIGINATOR     = 

OBJECT_NAME    = AQUA
OBJECT_ID      = 2002-022A
CENTER_NAME    = EARTH
REF_FRAME      = TEME
TIME_SYSTEM    = UTC
MEAN_ELEMENT_THEORY = SGP/SGP4

EPOCH          = 2026-03-23T05:53:08.536416
MEAN_MOTION    = 14.62007319
ECCENTRICITY   = .00009156
INCLINATION    = 98.4198
RA_OF_ASC_NODE = 49.8594
ARG_OF_PERICENTER = 116.3230
MEAN_ANOMALY   = 354.8654

EPHEMERIS_TYPE = 0
CLASSIFICATION_TYPE = U
NORAD_CAT_ID   = 27424
ELEMENT_SET_NO = 999
REV_AT_EPOCH   = 27071
BSTAR          = .22813379E-3
MEAN_MOTION_DOT = .1095E-4
MEAN_MOTION_DDOT = 0

CCSDS_OMM_VERS = 2.0
CREATION_DATE  = 
ORIGINATOR     = 

OBJECT_NAME    = CZ-4B R/B
OBJECT_ID      = 2002-024C
CENTER_NAME    = EARTH
REF_FRAME      = TEME
TIME_SYSTEM    = UTC
MEAN_ELEMENT_THEORY = SGP/SGP4

EPOCH          = 2026-03-23T03:36:29.853792
MEAN_MOTION    = 14.14549996
ECCENTRICITY   = .00497868
INCLINATION    = 98.8810
RA_OF_ASC_NODE = 135.4875
ARG_OF_PERICENTER = 345.9995
MEAN_ANOMALY   = 34.5163

EPHEMERIS_TYPE = 0
CLASSIFICATION_TYPE = U
NORAD_CAT_ID   = 27432
ELEMENT_SET_NO = 999
REV_AT_EPOCH   = 23114
BSTAR          = .38961816E-4
MEAN_MOTION_DOT = .31E-6
MEAN_MOTION_DDOT = 0

CCSDS_OMM_VERS = 2.0
CREATION_DATE  = 
ORIGINATOR     = 

OBJECT_NAME    = MIDORI II (ADEOS-II)
OBJECT_ID      = 2002-056A
CENTER_NAME    = EARTH
REF_FRAME      = TEME
TIME_SYSTEM    = UTC
MEAN_ELEMENT_THEORY = SGP/SGP4

EPOCH          = 2026-03-23T04:11:22.358976
MEAN_MOTION    = 14.29294987
ECCENTRICITY   = .00010277
INCLINATION    = 98.7793
RA_OF_ASC_NODE = 40.7473
ARG_OF_PERICENTER = 27.6921
MEAN_ANOMALY   = 332.4315

EPHEMERIS_TYPE = 0
CLASSIFICATION_TYPE = U
NORAD_CAT_ID   = 27597
ELEMENT_SET_NO = 999
REV_AT_EPOCH   = 21222
BSTAR          = .14769446E-3
MEAN_MOTION_DOT = .33E-5
MEAN_MOTION_DDOT = 0

CCSDS_OMM_VERS = 2.0
CREATION_DATE  = 
ORIGINATOR     = 

OBJECT_NAME    = H-2A R/B
OBJECT_ID      = 2002-056E
CENTER_NAME    = EARTH
REF_FRAME      = TEME
TIME_SYSTEM    = UTC
MEAN_ELEMENT_THEORY = SGP/SGP4

EPOCH          = 2026-03-22T23:07:57.770112
MEAN_MOTION    = 14.33769066
ECCENTRICITY   = .00711826
INCLINATION    = 98.3226
RA_OF_ASC_NODE = 41.8259
ARG_OF_PERICENTER = 121.4967
MEAN_ANOMALY   = 284.4449

EPHEMERIS_TYPE = 0
CLASSIFICATION_TYPE = U
NORAD_CAT_ID   = 27601
ELEMENT_SET_NO = 999
REV_AT_EPOCH   = 21601
BSTAR          = .11229684E-3
MEAN_MOTION_DOT = .28E-5
MEAN_MOTION_DDOT = 0

CCSDS_OMM_VERS = 2.0
CREATION_DATE  = 
ORIGINATOR     = 

OBJECT_NAME    = CZ-4B R/B
OBJECT_ID      = 2003-049C
CENTER_NAME    = EARTH
REF_FRAME      = TEME
TIME_SYSTEM    = UTC
MEAN_ELEMENT_THEORY = SGP/SGP4

EPOCH          = 2026-03-22T23:59:18.141792
MEAN_MOTION    = 14.55031812
ECCENTRICITY   = .0047925
INCLINATION    = 98.6891
RA_OF_ASC_NODE = 77.4278
ARG_OF_PERICENTER = 189.7348
MEAN_ANOMALY   = 170.2924

EPHEMERIS_TYPE = 0
CLASSIFICATION_TYPE = U
NORAD_CAT_ID   = 28059
ELEMENT_SET_NO = 999
REV_AT_EPOCH   = 18853
BSTAR          = .93954691E-4
MEAN_MOTION_DOT = .359E-5
MEAN_MOTION_DDOT = 0

CCSDS_OMM_VERS = 2.0
CREATION_DATE  = 
ORIGINATOR     = 

OBJECT_NAME    = CZ-2C R/B
OBJECT_ID      = 2004-012C
CENTER_NAME    = EARTH
REF_FRAME      = TEME
TIME_SYSTEM    = UTC
MEAN_ELEMENT_THEORY = SGP/SGP4

EPOCH          = 2026-03-23T03:52:49.410336
MEAN_MOTION    = 15.66134257
ECCENTRICITY   = .00129956
INCLINATION    = 97.7190
RA_OF_ASC_NODE = 148.7447
ARG_OF_PERICENTER = 254.6258
MEAN_ANOMALY   = 105.3565

EPHEMERIS_TYPE = 0
CLASSIFICATION_TYPE = U
NORAD_CAT_ID   = 28222
ELEMENT_SET_NO = 999
REV_AT_EPOCH   = 20638
BSTAR          = .66163001E-3
MEAN_MOTION_DOT = .68475E-3
MEAN_MOTION_DDOT = 0

CCSDS_OMM_VERS = 2.0
CREATION_DATE  = 
ORIGINATOR     = 

OBJECT_NAME    = SL-16 R/B
OBJECT_ID      = 2004-021B
CENTER_NAME    = EARTH
REF_FRAME      = TEME
TIME_SYSTEM    = UTC
MEAN_ELEMENT_THEORY = SGP/SGP4

EPOCH          = 2026-03-22T18:01:25.782240
MEAN_MOTION    = 14.14593300
ECCENTRICITY   = .00046817
INCLINATION    = 71.0001
RA_OF_ASC_NODE = 205.0820
ARG_OF_PERICENTER = 353.6018
MEAN_ANOMALY   = 6.5044

EPHEMERIS_TYPE = 0
CLASSIFICATION_TYPE = U
NORAD_CAT_ID   = 28353
ELEMENT_SET_NO = 999
REV_AT_EPOCH   = 12468
BSTAR          = -.6045375E-5
MEAN_MOTION_DOT = -.59E-6
MEAN_MOTION_DDOT = 0

CCSDS_OMM_VERS = 2.0
CREATION_DATE  = 
ORIGINATOR     = 

OBJECT_NAME    = CZ-4B R/B
OBJECT_ID      = 2004-035C
CENTER_NAME    = EARTH
REF_FRAME      = TEME
TIME_SYSTEM    = UTC
MEAN_ELEMENT_THEORY = SGP/SGP4

EPOCH          = 2026-03-23T01:29:13.360416
MEAN_MOTION    = 15.29292179
ECCENTRICITY   = .00300337
INCLINATION    = 97.3476
RA_OF_ASC_NODE = 116.1447
ARG_OF_PERICENTER = 281.6956
MEAN_ANOMALY   = 78.0914

EPHEMERIS_TYPE = 0
CLASSIFICATION_TYPE = U
NORAD_CAT_ID   = 28415
ELEMENT_SET_NO = 999
REV_AT_EPOCH   = 18195
BSTAR          = .36862575E-3
MEAN_MOTION_DOT = .10544E-3
MEAN_MOTION_DDOT = 0

CCSDS_OMM_VERS = 2.0
CREATION_DATE  = 
ORIGINATOR     = 

OBJECT_NAME    = CZ-2C R/B
OBJECT_ID      = 2004-046B
CENTER_NAME    = EARTH
REF_FRAME      = TEME
TIME_SYSTEM    = UTC
MEAN_ELEMENT_THEORY = SGP/SGP4

EPOCH          = 2026-03-22T17:42:40.938048
MEAN_MOTION    = 14.26996419
ECCENTRICITY   = .01404618
INCLINATION    = 98.1978
RA_OF_ASC_NODE = 355.9093
ARG_OF_PERICENTER = 116.0744
MEAN_ANOMALY   = 245.4973

EPHEMERIS_TYPE = 0
CLASSIFICATION_TYPE = U
NORAD_CAT_ID   = 28480
ELEMENT_SET_NO = 999
REV_AT_EPOCH   = 11036
BSTAR          = .66983345E-4
MEAN_MOTION_DOT = .141E-5
MEAN_MOTION_DDOT = 0

CCSDS_OMM_VERS = 2.0
CREATION_DATE  = 
ORIGINATOR     = 

OBJECT_NAME    = ARIANE 5 R/B
OBJECT_ID      = 2004-049H
CENTER_NAME    = EARTH
REF_FRAME      = TEME
TIME_SYSTEM    = UTC
MEAN_ELEMENT_THEORY = SGP/SGP4

EPOCH          = 2026-03-23T04:09:56.723616
MEAN_MOTION    = 14.85289232
ECCENTRICITY   = .00830877
INCLINATION    = 98.2647
RA_OF_ASC_NODE = 251.1373
ARG_OF_PERICENTER = 307.9013
MEAN_ANOMALY   = 51.4707

EPHEMERIS_TYPE = 0
CLASSIFICATION_TYPE = U
NORAD_CAT_ID   = 28499
ELEMENT_SET_NO = 999
REV_AT_EPOCH   = 14779
BSTAR          = .99406196E-4
MEAN_MOTION_DOT = .842E-5
MEAN_MOTION_DDOT = 0

CCSDS_OMM_VERS = 2.0
CREATION_DATE  = 
ORIGINATOR     = 

OBJECT_NAME    = CZ-2D R/B
OBJECT_ID      = 2005-024B
CENTER_NAME    = EARTH
REF_FRAME      = TEME
TIME_SYSTEM    = UTC
MEAN_ELEMENT_THEORY = SGP/SGP4

EPOCH          = 2026-03-23T01:04:57.920448
MEAN_MOTION    = 15.61350624
ECCENTRICITY   = .00033873
INCLINATION    = 97.3588
RA_OF_ASC_NODE = 97.6925
ARG_OF_PERICENTER = 6.9253
MEAN_ANOMALY   = 353.2051

EPHEMERIS_TYPE = 0
CLASSIFICATION_TYPE = U
NORAD_CAT_ID   = 28738
ELEMENT_SET_NO = 999
REV_AT_EPOCH   = 14186
BSTAR          = .62052809E-3
MEAN_MOTION_DOT = .52926E-3
MEAN_MOTION_DDOT = 0

CCSDS_OMM_VERS = 2.0
CREATION_DATE  = 
ORIGINATOR     = 

OBJECT_NAME    = ALOS (DAICHI)
OBJECT_ID      = 2006-002A
CENTER_NAME    = EARTH
REF_FRAME      = TEME
TIME_SYSTEM    = UTC
MEAN_ELEMENT_THEORY = SGP/SGP4

EPOCH          = 2026-03-23T04:28:05.875104
MEAN_MOTION    = 14.69850625
ECCENTRICITY   = .00007074
INCLINATION    = 98.1241
RA_OF_ASC_NODE = 38.0761
ARG_OF_PERICENTER = 93.3836
MEAN_ANOMALY   = 266.7451

EPHEMERIS_TYPE = 0
CLASSIFICATION_TYPE = U
NORAD_CAT_ID   = 28931
ELEMENT_SET_NO = 999
REV_AT_EPOCH   = 7546
BSTAR          = .25441133E-3
MEAN_MOTION_DOT = .1471E-4
MEAN_MOTION_DDOT = 0

